NORAD_CAT_ID,OBJECT_NAME,OBJECT_TYPE,EPOCH,MEAN_MOTION,ECCENTRICITY,INCLINATION,RA_OF_ASC_NODE,ARG_OF_PERICENTER,MEAN_ANOMALY,BSTAR,MEAN_MOTION_DOT,MEAN_MOTION_DDOT,TLE_LINE0,TLE_LINE1,TLE_LINE2,SEMIMAJOR_AXIS,PERIOD,APOGEE,PERIGEE,DECAYED
51810.0,STARLINK-3613,PAYLOAD,2022-06-30 22:00:00,15.0884116,0.00011,53.2148,259.4934,103.0238,195.7018,-0.0023773,-0.00037924,0.0,0 STARLINK-3613,1 51810U 22017AU  22181.91667824 -.00037924  00000-0 -23773-2 0  9995,2 51810  53.2148 259.4934 0001100 103.0238 195.7018 15.08841160 20732,6917.877,95.437,540.503,538.981,0.0
51810.0,STARLINK-3613,PAYLOAD,2022-07-01 14:00:01,15.08815407,0.0001128,53.2153,256.502,95.7353,226.1638,0.0016111,0.00025428,0.0,0 STARLINK-3613,1 51810U 22017AU  22182.58334491  .00025428  00000-0  16111-2 0  9992,2 51810  53.2153 256.5020 0001128  95.7353 226.1638 15.08815407  1301,6917.956,95.439,540.601,539.04,0.0
51810.0,STARLINK-3613,PAYLOAD,2022-07-01 22:00:00,15.08842275,0.0001069,53.2159,255.0042,101.9045,231.5728,-0.0014620999999999,-0.00023483,0.0,0 STARLINK-3613,1 51810U 22017AU  22182.91667824 -.00023483  00000-0 -14621-2 0  9993,2 51810  53.2159 255.0042 0001069 101.9045 231.5728 15.08842275  1300,6917.873000000001,95.437,540.4780000000002,538.999,0.0
51810.0,STARLINK-3613,PAYLOAD,2022-07-02 14:00:01,15.08824926,0.0001091,53.216,252.0129,92.5909,264.0758,0.002211,0.00035061,0.0,0 STARLINK-3613,1 51810U 22017AU  22183.58334491  .00035061  00000-0  22110-2 0  9993,2 51810  53.2160 252.0129 0001091  92.5909 264.0758 15.08824926 20986,6917.926,95.439,540.5459999999998,539.0369999999998,0.0
51810.0,STARLINK-3613,PAYLOAD,2022-07-02 22:00:00,15.08857255,0.0001032,53.2159,250.5149,99.251,269.0163,-0.00058385,-9.572e-05,0.0,0 STARLINK-3613,1 51810U 22017AU  22183.91667824 -.00009572  00000-0 -58385-3 0  9993,2 51810  53.2159 250.5149 0001032  99.2510 269.0163 15.08857255  1307,6917.828,95.436,540.4069999999998,538.979,0.0
51810.0,STARLINK-3613,PAYLOAD,2022-07-03 14:00:01,15.08829851,0.0001178,53.2161,247.5235,88.2654,303.2365,0.00040081,6.095e-05,0.0,0 STARLINK-3613,1 51810U 22017AU  22184.58334491  .00006095  00000-0  40081-3 0  9997,2 51810  53.2161 247.5235 0001178  88.2654 303.2365 15.08829851 21139,6917.911,95.438,540.591,538.961,0.0
51810.0,STARLINK-3613,PAYLOAD,2022-07-03 22:00:00,15.08819804,0.0001226,53.2162,246.0254,95.6494,307.4417,-0.0014245,-0.00022874,0.0,0 STARLINK-3613,1 51810U 22017AU  22184.91667824 -.00022874  00000-0 -14245-2 0  9990,2 51810  53.2162 246.0254 0001226  95.6494 307.4417 15.08819804  1301,6917.941999999999,95.439,540.655,538.9590000000002,0.0
51810.0,STARLINK-3613,PAYLOAD,2022-07-04 06:00:00,15.0882549,0.0001302,53.2164,244.5291,96.9706,317.6749,-0.00094671,-0.00015317,0.0,0 STARLINK-3613,1 51810U 22017AU  22185.25001157 -.00015317  00000-0 -94671-3 0  9995,2 51810  53.2164 244.5291 0001302  96.9706 317.6749 15.08825490 21235,6917.925,95.438,540.69,538.889,0.0
51810.0,STARLINK-3613,PAYLOAD,2022-07-04 14:00:01,15.0879281,0.000127,53.2164,243.0344,86.1468,340.0737,0.0027353,0.00043457,0.0,0 STARLINK-3613,1 51810U 22017AU  22185.58334491  .00043457  00000-0  27353-2 0  9997,2 51810  53.2164 243.0344 0001270  86.1468 340.0737 15.08792810  1300,6918.025,95.441,540.768,539.011,0.0
51810.0,STARLINK-3613,PAYLOAD,2022-07-04 22:00:00,15.08817458,0.0001218,53.2167,241.5362,94.8132,342.9728,0.00028486,4.246e-05,0.0,0 STARLINK-3613,1 51810U 22017AU  22185.91667824  .00004246  00000-0  28486-3 0  9995,2 51810  53.2167 241.5362 0001218  94.8132 342.9728 15.08817458  1309,6917.949000000001,95.439,540.6569999999998,538.972,0.0
51810.0,STARLINK-3613,PAYLOAD,2022-07-05 06:00:00,15.08841169,0.0001264999999999,53.2169,240.0401,95.488,353.8619,-0.0012003,-0.0001934,0.0,0 STARLINK-3613,1 51810U 22017AU  22186.25001157 -.00019340  00000-0 -12003-2 0  9994,2 51810  53.2169 240.0401 0001265  95.4880 353.8619 15.08841169 21384,6917.877,95.437,540.617,538.867,0.0
51810.0,STARLINK-3613,PAYLOAD,2022-07-05 14:00:01,15.08805872,0.0001218,53.2167,238.5451,84.6101,16.3321,0.0029468,0.00046878,0.0,0 STARLINK-3613,1 51810U 22017AU  22186.58334491  .00046878  00000-0  29468-2 0  9997,2 51810  53.2167 238.5451 0001218  84.6101  16.3321 15.08805872  1305,6917.985,95.44,540.692,539.007,0.0
51810.0,STARLINK-3613,PAYLOAD,2022-07-05 22:00:00,15.08823017,0.0001161,53.2169,237.0471,95.3923,17.1283,0.00067346,0.00010441,0.0,0 STARLINK-3613,1 51810U 22017AU  22186.91667824  .00010441  00000-0  67346-3 0  9998,2 51810  53.2169 237.0471 0001161  95.3923  17.1283 15.08823017  1308,6917.932,95.439,540.6,538.994,0.0
51810.0,STARLINK-3613,PAYLOAD,2022-07-06 14:00:01,15.08812247,0.0001155,53.2168,234.056,84.2035,51.4912,0.0028051,0.00044604,0.0,0 STARLINK-3613,1 51810U 22017AU  22187.58334491  .00044604  00000-0  28051-2 0  9990,2 51810  53.2168 234.0560 0001155  84.2035  51.4912 15.08812247  1300,6917.965,95.439,540.629,539.031,0.0
51810.0,STARLINK-3613,PAYLOAD,2022-07-06 19:45:38,15.08825625,0.0001169,53.2175,232.9776,92.3142,267.7984,8.0199e-05,9.88e-06,0.0,0 STARLINK-3613,1 51810U 22017AU  22187.82335874  .00000988  00000-0  80199-4 0  9993,2 51810  53.2175 232.9776 0001169  92.3142 267.7984 15.08825625 21507,6917.924,95.438,540.5980000000002,538.981,0.0
51810.0,STARLINK-3613,PAYLOAD,2022-07-07 06:00:02,15.08856822,0.0001155,53.2171,231.0622,95.9342,62.9937,-0.001765,-0.0002828,0.0,0 STARLINK-3613,1 51810U 22017AU  22188.25002315 -.00028280  00000-0 -17650-2 0  9999,2 51810  53.2171 231.0622 0001155  95.9342  62.9937 15.08856822 21695,6917.829000000002,95.436,540.493,538.895,0.0
51810.0,STARLINK-3613,PAYLOAD,2022-07-07 11:39:29,15.08832357,0.0001156,53.2174,230.0041,92.0046,268.1078,6.519699999999999e-05,7.4999999999999985e-06,0.0,0 STARLINK-3613,1 51810U 22017AU  22188.48575972  .00000750  00000-0  65197-4 0  9999,2 51810  53.2174 230.0041 0001156  92.0046 268.1078 15.08832357 21606,6917.904,95.438,540.568,538.969,0.0
51810.0,STARLINK-3613,PAYLOAD,2022-07-07 22:00:00,15.0882727,0.0001069,53.2165,228.0692,97.377,84.6911,0.0015346,0.00024211,0.0,0 STARLINK-3613,1 51810U 22017AU  22188.91667824  .00024211  00000-0  15346-2 0  9992,2 51810  53.2165 228.0692 0001069  97.3770  84.6911 15.08827270  1300,6917.919,95.438,540.524,539.045,0.0
51810.0,STARLINK-3613,PAYLOAD,2022-07-08 11:30:16,15.08843466,0.0001137,53.2174,225.5437,93.0646,267.0476,9.7501e-05,1.264e-05,0.0,0 STARLINK-3613,1 51810U 22017AU  22189.47935327  .00001264  00000-0  97501-4 0  9998,2 51810  53.2174 225.5437 0001137  93.0646 267.0476 15.08843466 21759,6917.87,95.437,540.521,538.948,0.0
51810.0,STARLINK-3613,PAYLOAD,2022-07-08 22:00:01,15.08843702,0.0001075,53.2161,223.5797,96.0577,120.9057,0.0020337,0.0003223,0.0,0 STARLINK-3613,1 51810U 22017AU  22189.91668981  .00032230  00000-0  20337-2 0  9994,2 51810  53.2161 223.5797 0001075  96.0577 120.9057 15.08843702 21945,6917.869000000002,95.437,540.4780000000002,538.99,0.0
51810.0,STARLINK-3613,PAYLOAD,2022-07-09 14:00:01,15.08820607,0.0001197,53.2157,220.58900000000003,82.8773,157.1941,0.0017469,0.00027608,0.0,0 STARLINK-3613,1 51810U 22017AU  22190.58334491  .00027608  00000-0  17469-2 0  9990,2 51810  53.2157 220.5890 0001197  82.8773 157.1941 15.08820607  1308,6917.94,95.439,540.633,538.977,0.0
51810.0,STARLINK-3613,PAYLOAD,2022-07-09 20:00:01,15.0883275,0.0001168,53.2159,219.4652,91.4673,67.2932,-0.00022238,-3.825e-05,0.0,0 STARLINK-3613,1 51810U 22017AU  22190.83334491 -.00003825  00000-0 -22238-3 0  9996,2 51810  53.2159 219.4652 0001168  91.4673  67.2932 15.08832750  1309,6917.903,95.438,540.576,538.96,0.0
51810.0,STARLINK-3613,PAYLOAD,2022-07-10 06:00:00,15.08850717,0.0001245,53.2158,217.5956,88.8929,174.3484,-0.0015890999999999,-0.00025496,0.0,0 STARLINK-3613,1 51810U 22017AU  22191.25001157 -.00025496  00000-0 -15891-2 0  9997,2 51810  53.2158 217.5956 0001245  88.8929 174.3484 15.08850717 22144,6917.848000000001,95.437,540.5740000000002,538.851,0.0
51810.0,STARLINK-3613,PAYLOAD,2022-07-10 14:00:01,15.08831915,0.0001203,53.2155,216.0999,79.7697,195.0664,0.0011220999999999,0.00017611,0.0,0 STARLINK-3613,1 51810U 22017AU  22191.58334491  .00017611  00000-0  11221-2 0  9994,2 51810  53.2155 216.0999 0001203  79.7697 195.0664 15.08831915  1301,6917.905,95.438,540.602,538.938,0.0
51810.0,STARLINK-3613,PAYLOAD,2022-07-10 22:00:00,15.08817955,0.0001188,53.2156,214.6017,90.0031,196.4354,0.0026647,0.0004235,0.0,0 STARLINK-3613,1 51810U 22017AU  22191.91667824  .00042350  00000-0  26647-2 0  9996,2 51810  53.2156 214.6017 0001188  90.0031 196.4354 15.08817955 22242,6917.948,95.439,540.635,538.991,0.0
51810.0,STARLINK-3613,PAYLOAD,2022-07-11 14:00:01,15.08845447,0.0001228,53.2154,211.6106,76.8848,232.743,0.00051592,7.934e-05,0.0,0 STARLINK-3613,1 51810U 22017AU  22192.58334491  .00007934  00000-0  51592-3 0  9998,2 51810  53.2154 211.6106 0001228  76.8848 232.7430 15.08845447  1309,6917.864000000001,95.437,540.578,538.879,0.0
51810.0,STARLINK-3613,PAYLOAD,2022-07-11 22:00:00,15.0882508,0.0001213,53.2157,210.1124,88.1147,233.1272,0.0029106,0.0004632,0.0,0 STARLINK-3613,1 51810U 22017AU  22192.91667824  .00046320  00000-0  29106-2 0  9991,2 51810  53.2157 210.1124 0001213  88.1147 233.1272 15.08825080  1308,6917.926,95.438,540.63,538.952,0.0
51810.0,STARLINK-3613,PAYLOAD,2022-07-12 14:00:01,15.08872236,0.0001301,53.2154,207.1212,75.6386,268.8131,-0.0027081,-0.00043167,0.0,0 STARLINK-3613,1 51810U 22017AU  22193.58334491 -.00043167  00000-0 -27081-2 0  9994,2 51810  53.2154 207.1212 0001301  75.6386 268.8131 15.08872236  1307,6917.781999999997,95.436,540.547,538.747,0.0
51810.0,STARLINK-3613,PAYLOAD,2022-07-12 22:00:00,15.0880937,0.000134,53.2157,205.6231,88.0151,268.0617,0.0031177,0.00049638,0.0,0 STARLINK-3613,1 51810U 22017AU  22193.91667824  .00049638  00000-0  31177-2 0  9998,2 51810  53.2157 205.6231 0001340  88.0151 268.0617 15.08809370 22544,6917.974,95.439,540.766,538.9119999999998,0.0
